NORAD_CAT_ID,OBJECT_NAME,OBJECT_TYPE,EPOCH,MEAN_MOTION,ECCENTRICITY,INCLINATION,RA_OF_ASC_NODE,ARG_OF_PERICENTER,MEAN_ANOMALY,BSTAR,MEAN_MOTION_DOT,MEAN_MOTION_DDOT,TLE_LINE0,TLE_LINE1,TLE_LINE2,SEMIMAJOR_AXIS,PERIOD,APOGEE,PERIGEE,DECAYED
53936.0,STARLINK-4791,PAYLOAD,2024-07-21 21:22:39,15.08860279,0.0001071,53.2168,93.4952,64.5123,295.5979,0.0023258,0.00036942,0.0,0 STARLINK-4791,1 53936U 22119BC  24203.89073740  .00036942  00000-0  23258-2 0  9996,2 53936  53.2168  93.4952 0001071  64.5123 295.5979 15.08860279102101,6917.818,95.436,540.424,538.943,0.0
53936.0,STARLINK-4791,PAYLOAD,2024-07-21 22:58:02,15.08857447,8.06e-05,53.2164,93.1992,114.0498,246.0578,0.0020453,0.00032429,0.0,0 STARLINK-4791,1 53936U 22119BC  24203.95697522  .00032429  00000-0  20453-2 0  9993,2 53936  53.2164  93.1992 0000806 114.0498 246.0578 15.08857447101680,6917.827,95.436,540.25,539.134,0.0
53936.0,STARLINK-4791,PAYLOAD,2024-07-22 05:19:34,15.0886188,0.0001134,53.2155,92.0139,138.4111,221.6967,0.0015296,0.00024154,0.0,0 STARLINK-4791,1 53936U 22119BC  24204.22193191  .00024154  00000-0  15296-2 0  9992,2 53936  53.2155  92.0139 0001134 138.4111 221.6967 15.08861880101720,6917.814,95.436,540.463,538.894,0.0
53936.0,STARLINK-4791,PAYLOAD,2024-07-22 22:48:49,15.08847633,0.0001077,53.2163,88.7432,75.1637,284.9474,0.00048017,7.364e-05,0.0,0 STARLINK-4791,1 53936U 22119BC  24204.95057508  .00007364  00000-0  48017-3 0  9995,2 53936  53.2163  88.7432 0001077  75.1637 284.9474 15.08847633102268,6917.857,95.437,540.467,538.977,0.0
53936.0,STARLINK-4791,PAYLOAD,2024-07-23 01:59:35,15.08855364,9.92e-05,53.2157,88.1436,68.389,291.7208,0.00059087,9.132e-05,0.0,0 STARLINK-4791,1 53936U 22119BC  24205.08305278  .00009132  00000-0  59087-3 0  9994,2 53936  53.2157  88.1436 0000992  68.3890 291.7208 15.08855364101854,6917.833,95.437,540.385,539.012,0.0
53936.0,STARLINK-4791,PAYLOAD,2024-07-24 22:30:24,15.08844237,8.99e-05,53.2156,79.8242,105.4822,254.627,0.00041813,6.374e-05,0.0,0 STARLINK-4791,1 53936U 22119BC  24206.93777836  .00006374  00000-0  41813-3 0  9995,2 53936  53.2156  79.8242 0000899 105.4822 254.6270 15.08844237102562,6917.867,95.437,540.354,539.111,0.0
53936.0,STARLINK-4791,PAYLOAD,2024-07-25 01:41:10,15.08835051,0.0001608,53.2151,79.2226,148.1121,211.9968,0.00011948,1.614e-05,0.0,0 STARLINK-4791,1 53936U 22119BC  24207.07025559  .00001614  00000-0  11948-3 0  9997,2 53936  53.2151  79.2226 0001608 148.1121 211.9968 15.08835051102157,6917.896,95.438,540.873,538.648,0.0
53936.0,STARLINK-4791,PAYLOAD,2024-07-26 01:31:57,15.08837275,9.17e-05,53.2172,74.7645,117.9142,242.1944,5.0878e-05,5.22e-06,0.0,0 STARLINK-4791,1 53936U 22119BC  24208.06385823  .00000522  00000-0  50878-4 0  9993,2 53936  53.2172  74.7645 0000917 117.9142 242.1944 15.08837275102738,6917.889,95.438,540.388,539.119,0.0
53936.0,STARLINK-4791,PAYLOAD,2024-07-26 22:11:57,15.08850389,9.36e-05,53.2148,70.9017,88.4944,271.6155,0.00012501,1.703e-05,0.0,0 STARLINK-4791,1 53936U 22119BC  24208.92497195  .00001703  00000-0  12501-3 0  9996,2 53936  53.2148  70.9017 0000936  88.4944 271.6155 15.08850389102861,6917.849,95.437,540.361,539.066,0.0
53936.0,STARLINK-4791,PAYLOAD,2024-07-27 22:02:44,15.08863182,6.44e-05,53.2159,66.4357,105.0667,255.0396,-0.00077802,-0.00012656,0.0,0 STARLINK-4791,1 53936U 22119BC  24209.91857222 -.00012656  00000-0 -77802-3 0  9993,2 53936  53.2159  66.4357 0000644 105.0667 255.0396 15.08863182103010,6917.81,95.436,540.12,539.229,0.0
53936.0,STARLINK-4791,PAYLOAD,2024-07-28 21:53:31,15.08873488,8.54e-05,53.2157,61.9791,105.3142,254.7944,-0.00069776,-0.00011385,0.0,0 STARLINK-4791,1 53936U 22119BC  24210.91216489 -.00011385  00000-0 -69776-3 0  9998,2 53936  53.2157  61.9791 0000854 105.3142 254.7944 15.08873488103165,6917.778,95.435,540.234,539.052,0.0
53936.0,STARLINK-4791,PAYLOAD,2024-07-29 07:25:50,15.08855558,9.57e-05,53.2164,60.1949,94.4133,265.6968,0.00014479,2.018e-05,0.0,0 STARLINK-4791,1 53936U 22119BC  24211.30961453  .00002018  00000-0  14479-3 0  9991,2 53936  53.2164  60.1949 0000957  94.4133 265.6968 15.08855558102794,6917.833,95.437,540.36,539.036,0.0
53936.0,STARLINK-4791,PAYLOAD,2024-07-29 20:08:56,15.08842246,0.0001149,53.2162,57.8173,105.1989,254.913,0.00031041,4.656e-05,0.0,0 STARLINK-4791,1 53936U 22119BC  24211.83954418  .00004656  00000-0  31041-3 0  9996,2 53936  53.2162  57.8173 0001149 105.1989 254.9130 15.08842246102878,6917.874,95.437,540.533,538.944,0.0
53936.0,STARLINK-4791,PAYLOAD,2024-07-30 07:16:38,15.08851549,0.0001396,53.2178,55.7341,108.2385,251.8759,0.00034289,5.175e-05,0.0,0 STARLINK-4791,1 53936U 22119BC  24212.30321966  .00005175  00000-0  34289-3 0  9999,2 53936  53.2178  55.7341 0001396 108.2385 251.8759 15.08851549103372,6917.845,95.437,540.676,538.744,0.0
53936.0,STARLINK-4791,PAYLOAD,2024-07-30 19:59:43,15.08847637,0.000133,53.2179,53.356,104.7956,255.3183,0.00011949,1.615e-05,0.0,0 STARLINK-4791,1 53936U 22119BC  24212.83313922  .00001615  00000-0  11949-3 0  9993,2 53936  53.2179  53.3560 0001330 104.7956 255.3183 15.08847637103455,6917.857,95.437,540.642,538.802,0.0
53936.0,STARLINK-4791,PAYLOAD,2024-07-31 13:28:57,15.0884348,0.0001026,53.2174,50.0863,90.4656,269.6454,0.00014657,2.046e-05,0.0,0 STARLINK-4791,1 53936U 22119BC  24213.56177975  .00002046  00000-0  14657-3 0  9998,2 53936  53.2174  50.0863 0001026  90.4656 269.6454 15.08843480103136,6917.87,95.437,540.445,539.025,0.0
53936.0,STARLINK-4791,PAYLOAD,2024-07-31 19:50:30,15.08836551,0.0001215,53.2182,48.8936,103.6131,256.4996,-5.5821e-05,-1.176e-05,0.0,0 STARLINK-4791,1 53936U 22119BC  24213.82674318 -.00001176  00000-0 -55821-4 0  9994,2 53936  53.2182  48.8936 0001215 103.6131 256.4996 15.08836551103604,6917.891,95.438,540.596,538.915,0.0
53936.0,STARLINK-4791,PAYLOAD,2024-08-01 13:19:44,15.08846017,0.0001162,53.217,45.6199,99.758,260.3543,-0.00032032,-5.383e-05,0.0,0 STARLINK-4791,1 53936U 22119BC  24214.55537913 -.00005383  00000-0 -32032-3 0  9996,2 53936  53.2170  45.6199 0001162  99.7580 260.3543 15.08846017103713,6917.862,95.437,540.531,538.923,0.0
53936.0,STARLINK-4791,PAYLOAD,2024-08-01 19:41:17,15.08840575,0.000113,53.2171,44.4313,98.6764,261.4356,0.00011804,1.591e-05,0.0,0 STARLINK-4791,1 53936U 22119BC  24214.82034315  .00001591  00000-0  11804-3 0  9993,2 53936  53.2171  44.4313 0001130  98.6764 261.4356 15.08840575103757,6917.879,95.438,540.525,538.962,0.0
53936.0,STARLINK-4791,PAYLOAD,2024-08-02 13:10:32,15.08838078,0.0002265,53.2173,41.164,82.7468,277.3781,0.00022548,3.302e-05,0.0,0 STARLINK-4791,1 53936U 22119BC  24215.54898843  .00003302  00000-0  22548-3 0  9996,2 53936  53.2173  41.1640 0002265  82.7468 277.3781 15.08838078103439,6917.886,95.438,541.318,538.184,0.0
53936.0,STARLINK-4791,PAYLOAD,2024-08-02 17:56:42,15.088296,0.0001418,53.2182,40.274,97.2479,262.8675,0.00010508,1.384e-05,0.0,0 STARLINK-4791,1 53936U 22119BC  24215.74771279  .00001384  00000-0  10508-3 0  9992,2 53936  53.2182  40.2740 0001418  97.2479 262.8675 15.08829600103467,6917.912,95.438,540.758,538.796,0.0
53936.0,STARLINK-4791,PAYLOAD,2024-08-03 05:04:23,15.08840541,0.0001503,53.2181,38.1971,108.7117,251.4038,0.00015992,2.258e-05,0.0,0 STARLINK-4791,1 53936U 22119BC  24216.21138833  .00002258  00000-0  15992-3 0  9991,2 53936  53.2181  38.1971 0001503 108.7117 251.4038 15.08840541103532,6917.879,95.438,540.783,538.704,0.0
53936.0,STARLINK-4791,PAYLOAD,2024-08-03 13:01:19,15.08842498,0.0001633,53.2182,36.7114,117.4688,242.647,0.00020654,3.001e-05,0.0,0 STARLINK-4791,1 53936U 22119BC  24216.54258825  .00003001  00000-0  20654-3 0  9999,2 53936  53.2182  36.7114 0001633 117.4688 242.6470 15.08842498104019,6917.873,95.437,540.867,538.608,0.0
53936.0,STARLINK-4791,PAYLOAD,2024-08-03 20:58:15,15.08852122,0.0001476,53.2172,35.2243,110.6858,249.4292,0.00064595,0.00010011,0.0,0 STARLINK-4791,1 53936U 22119BC  24216.87378722  .00010011  00000-0  64595-3 0  9995,2 53936  53.2172  35.2243 0001476 110.6858 249.4292 15.08852122104061,6917.843,95.437,540.729,538.687,0.0
53936.0,STARLINK-4791,PAYLOAD,2024-08-04 04:55:10,15.08871807,0.0001543,53.2161,33.7291,66.9155,293.1999,0.0012018,0.00018907,0.0,0 STARLINK-4791,1 53936U 22119BC  24217.20498139  .00018907  00000-0  12018-2 0  9992,2 53936  53.2161  33.7291 0001543  66.9155 293.1999 15.08871807103681,6917.783,95.436,540.716,538.581,0.0
53936.0,STARLINK-4791,PAYLOAD,2024-08-04 20:49:01,15.08877028,0.000132,53.2166,30.7622,82.4547,277.6595,0.0016327,0.00025818,0.0,0 STARLINK-4791,1 53936U 22119BC  24217.86737949  .00025818  00000-0  16327-2 0  9995,2 53936  53.2166  30.7622 0001320  82.4547 277.6595 15.08877028103783,6917.767,95.435,540.545,538.719,0.0
53936.0,STARLINK-4791,PAYLOAD,2024-08-05 04:45:57,15.08864177,0.0001438,53.2168,29.2721,72.8557,287.2592,0.0012454,0.00019601,0.0,0 STARLINK-4791,1 53936U 22119BC  24218.19857845  .00019601  00000-0  12454-2 0  9990,2 53936  53.2168  29.2721 0001438  72.8557 287.2592 15.08864177103833,6917.806,95.436,540.666,538.677,0.0
53936.0,STARLINK-4791,PAYLOAD,2024-08-05 19:04:26,15.0883404,0.0001269,53.2164,26.5931,87.772,272.3418,0.0012739,0.00020041,0.0,0 STARLINK-4791,1 53936U 22119BC  24218.79474555  .00020041  00000-0  12739-2 0  9995,2 53936  53.2164  26.5931 0001269  87.7720 272.3418 15.08834040103929,6917.899,95.438,540.641,538.886,0.0
53936.0,STARLINK-4791,PAYLOAD,2024-08-06 04:36:44,15.08846661,0.0001346,53.2164,24.8105,83.6317,276.4829,0.001517,0.00023942,0.0,0 STARLINK-4791,1 53936U 22119BC  24219.19218739  .00023942  00000-0  15170-2 0  9995,2 53936  53.2164  24.8105 0001346  83.6317 276.4829 15.08846661104414,6917.86,95.437,540.656,538.794,0.0
53936.0,STARLINK-4791,PAYLOAD,2024-08-06 17:19:50,15.0883271,0.0001377,53.2177,22.4313,93.4198,266.6951,0.0006912,0.00010727,0.0,0 STARLINK-4791,1 53936U 22119BC  24219.72211279  .00010727  00000-0  69120-3 0  9998,2 53936  53.2177  22.4313 0001377  93.4198 266.6951 15.08832710104061,6917.903,95.438,540.72,538.815,0.0
